IRIDIUM 921             
1 24873U 97034E   24128.91683998  .00028604  00000+0  80229-3 0  9990
2 24873  86.3785 308.0220 0004909  64.7152 295.4608 15.36434071468999
IRIDIUM 26              
1 24903U 97043A   24129.48106620  .00000700  00000+0  23294-3 0  9995
2 24903  86.3919 280.4208 0002119  87.1168 273.0272 14.36326487399103
IRIDIUM 22              
1 24907U 97043E   24129.50602845  .00000681  00000+0  23148-3 0  9998
2 24907  86.3920 283.6182 0002138  93.2647 266.8794 14.35216749398708
DUMMY MASS 1            
1 24925U 97048A   24128.92997066  .00000599  00000+0  65012-4 0  9995
2 24925  86.3319 322.6031 0008491 129.9020 230.2952 14.86172890444928
DUMMY MASS 2            
1 24926U 97048B   24129.56613371  .00000671  00000+0  73670-4 0  9991
2 24926  86.3320 323.8453 0009012 138.2236 221.9678 14.85932768445047
IRIDIUM 29              
1 24944U 97051A   24129.52127733  .00000606  00000+0  20346-3 0  9992
2 24944  86.3919 313.5461 0002324  94.8261 265.3201 14.35667696395419
IRIDIUM 33              
1 24946U 97051C   24129.51091991  .00000440  00000+0  14962-3 0  9992
2 24946  86.3835 312.8043 0006696 333.6217  26.4637 14.34335973394739
IRIDIUM 28              
1 24948U 97051E   24129.20320088  .00000653  00000+0  21552-3 0  9991
2 24948  86.3924 311.4258 0002015  79.2004 280.9420 14.36617867395758
